NORAD_CAT_ID,OBJECT_NAME,OBJECT_TYPE,EPOCH,MEAN_MOTION,ECCENTRICITY,INCLINATION,RA_OF_ASC_NODE,ARG_OF_PERICENTER,MEAN_ANOMALY,BSTAR,MEAN_MOTION_DOT,MEAN_MOTION_DDOT,TLE_LINE0,TLE_LINE1,TLE_LINE2,SEMIMAJOR_AXIS,PERIOD,APOGEE,PERIGEE,DECAYED
53820.0,STARLINK-4758,PAYLOAD,2023-12-30 19:26:40,15.08834793,0.0001358,53.2156,295.1419,102.1165,257.9979,-8.7604e-07,-3.02e-06,0.0,0 STARLINK-4758,1 53820U 22114C   23364.81019386 -.00000302  00000-0 -87604-6 0  9990,2 53820  53.2156 295.1419 0001358 102.1165 257.9979 15.08834793 71538,6917.896,95.438,540.701,538.822,0.0
53820.0,STARLINK-4758,PAYLOAD,2023-12-31 01:48:12,15.08846198,0.0001512,53.2168,293.9531,95.3053,264.8112,0.00010191,1.335e-05,0.0,0 STARLINK-4758,1 53820U 22114C   23365.07514959  .00001335  00000-0  10191-3 0  9994,2 53820  53.2168 293.9531 0001512  95.3053 264.8112 15.08846198 71575,6917.861,95.437,540.772,538.68,0.0
53820.0,STARLINK-4758,PAYLOAD,2023-12-31 22:28:14,15.08837724,0.0001606,53.2162,290.087,90.2697,269.8479,2.4095e-05,9.5e-07,0.0,0 STARLINK-4758,1 53820U 22114C   23365.93627717  .00000095  00000-0  24095-4 0  9997,2 53820  53.2162 290.0870 0001606  90.2697 269.8479 15.08837724 72246,6917.887,95.438,540.863,538.641,0.0
53820.0,STARLINK-4758,PAYLOAD,2024-01-01 01:39:00,15.08841148,0.0001684,53.2167,289.4921,84.2266,275.8918,6.8556e-05,8.03e-06,0.0,0 STARLINK-4758,1 53820U 22114C   24001.06875606  .00000803  00000-0  68556-4 0  9998,2 53820  53.2167 289.4921 0001684  84.2266 275.8918 15.08841148 71723,6917.877,95.437,540.907,538.577,0.0
53820.0,STARLINK-4758,PAYLOAD,2024-01-01 04:49:46,15.08843543,0.0001662,53.2165,288.897,88.7603,271.3579,0.00011083,1.476e-05,0.0,0 STARLINK-4758,1 53820U 22114C   24001.20123495  .00001476  00000-0  11083-3 0  9995,2 53820  53.2165 288.8970 0001662  88.7603 271.3579 15.08843543 72285,6917.87,95.437,540.884,538.585,0.0
53820.0,STARLINK-4758,PAYLOAD,2024-01-01 22:19:00,15.08850222,0.0001726,53.2165,285.6256,89.4405,270.6785,0.00017336,2.473e-05,0.0,0 STARLINK-4758,1 53820U 22114C   24001.92987035  .00002473  00000-0  17336-3 0  9997,2 53820  53.2165 285.6256 0001726  89.4405 270.6785 15.08850222 72391,6917.849,95.437,540.908,538.52,0.0
53820.0,STARLINK-4758,PAYLOAD,2024-01-02 01:29:46,15.08853382,0.0001766,53.2166,285.0308,87.9769,272.1426,0.00020883,3.038e-05,0.0,0 STARLINK-4758,1 53820U 22114C   24002.06234808  .00003038  00000-0  20883-3 0  9995,2 53820  53.2166 285.0308 0001766  87.9769 272.1426 15.08853382 71875,6917.839,95.437,540.926,538.483,0.0
53820.0,STARLINK-4758,PAYLOAD,2024-01-02 04:40:33,15.08855276,0.0001764,53.2166,284.436,88.5628,271.5566,0.00023006,3.377e-05,0.0,0 STARLINK-4758,1 53820U 22114C   24002.19482640  .00003377  00000-0  23006-3 0  9994,2 53820  53.2166 284.4360 0001764  88.5628 271.5566 15.08855276 72430,6917.834,95.437,540.919,538.478,0.0
53820.0,STARLINK-4758,PAYLOAD,2024-01-02 22:09:47,15.08843419,0.0001802,53.2156,281.16,113.0563,247.0619,3.2674e-05,2.32e-06,0.0,0 STARLINK-4758,1 53820U 22114C   24002.92346839  .00000232  00000-0  32674-4 0  9993,2 53820  53.2156 281.1600 0001802 113.0563 247.0619 15.08843419 72540,6917.87,95.437,540.982,538.488,0.0
53820.0,STARLINK-4758,PAYLOAD,2024-01-03 01:20:34,15.08841442,0.0001576,53.2165,280.5675,91.0917,269.0256,3.7969e-05,3.16e-06,0.0,0 STARLINK-4758,1 53820U 22114C   24003.05595124  .00000316  00000-0  37969-4 0  9996,2 53820  53.2165 280.5675 0001576  91.0917 269.0256 15.08841442 72029,6917.876,95.437,540.831,538.651,0.0
53820.0,STARLINK-4758,PAYLOAD,2024-01-03 04:31:20,15.08838638,0.000158,53.2163,279.9736,96.6719,263.4453,-2.5631e-05,-6.96e-06,0.0,0 STARLINK-4758,1 53820U 22114C   24003.18843088 -.00000696  00000-0 -25631-4 0  9991,2 53820  53.2163 279.9736 0001580  96.6719 263.4453 15.08838638 72584,6917.885,95.438,540.843,538.657,0.0
53820.0,STARLINK-4758,PAYLOAD,2024-01-03 22:00:35,15.08841916,0.0001558,53.217,276.7042,102.1027,258.014,-4.7043e-05,-1.037e-05,0.0,0 STARLINK-4758,1 53820U 22114C   24003.91707500 -.00001037  00000-0 -47043-4 0  9991,2 53820  53.2170 276.7042 0001558 102.1027 258.0140 15.08841916 72695,6917.875,95.437,540.817,538.662,0.0
53820.0,STARLINK-4758,PAYLOAD,2024-01-04 01:11:21,15.08843147,0.0001595,53.217,276.1097,105.0032,255.1137,-3.6166e-05,-8.64e-06,0.0,0 STARLINK-4758,1 53820U 22114C   24004.04955347 -.00000864  00000-0 -36166-4 0  9991,2 53820  53.2170 276.1097 0001595 105.0032 255.1137 15.08843147 72713,6917.871,95.437,540.839,538.632,0.0
53820.0,STARLINK-4758,PAYLOAD,2024-01-04 18:40:35,15.08842813,0.0001441,53.2166,272.838,93.8213,266.2944,0.00014407,2.006e-05,0.0,0 STARLINK-4758,1 53820U 22114C   24004.77818860  .00002006  00000-0  14407-3 0  9990,2 53820  53.2166 272.8380 0001441  93.8213 266.2944 15.08842813 72281,6917.872,95.437,540.734,538.74,0.0
53820.0,STARLINK-4758,PAYLOAD,2024-01-04 21:51:21,15.08846464,0.0001489,53.217,272.2431,100.8296,259.2864,0.00017583,2.512e-05,0.0,0 STARLINK-4758,1 53820U 22114C   24004.91066518  .00002512  00000-0  17583-3 0  9991,2 53820  53.2170 272.2431 0001489 100.8296 259.2864 15.08846464 72840,6917.861,95.437,540.756,538.696,0.0
53820.0,STARLINK-4758,PAYLOAD,2024-01-05 02:37:30,15.08853658,0.0001487,53.2159,271.3511,92.8184,267.2978,0.00027472,4.089e-05,0.0,0 STARLINK-4758,1 53820U 22114C   24005.10938266  .00004089  00000-0  27472-3 0  9990,2 53820  53.2159 271.3511 0001487  92.8184 267.2978 15.08853658 72332,6917.839,95.437,540.732,538.675,0.0
53820.0,STARLINK-4758,PAYLOAD,2024-01-05 16:55:59,15.08837617,0.0001772,53.2155,268.6756,120.5211,239.5956,4.5132e-05,4.3e-06,0.0,0 STARLINK-4758,1 53820U 22114C   24005.70555209  .00000430  00000-0  45132-4 0  9998,2 53820  53.2155 268.6756 0001772 120.5211 239.5956 15.08837617 72420,6917.888,95.438,540.979,538.527,0.0
53820.0,STARLINK-4758,PAYLOAD,2024-01-05 21:42:08,15.08838404,0.0001745,53.215,267.7804,120.2664,239.8501,-2.6966e-05,-7.17e-06,0.0,0 STARLINK-4758,1 53820U 22114C   24005.90427010 -.00000717  00000-0 -26966-4 0  9992,2 53820  53.2150 267.7804 0001745 120.2664 239.8501 15.08838404 72994,6917.885,95.438,540.957,538.543,0.0
53820.0,STARLINK-4758,PAYLOAD,2024-01-06 02:28:18,15.08832997,0.000142,53.2152,266.8915,90.3452,269.7703,-5.5876e-05,-1.177e-05,0.0,0 STARLINK-4758,1 53820U 22114C   24006.10299579 -.00001177  00000-0 -55876-4 0  9995,2 53820  53.2152 266.8915 0001420  90.3452 269.7703 15.08832997 73023,6917.902,95.438,540.749,538.784,0.0
53820.0,STARLINK-4758,PAYLOAD,2024-01-06 21:32:56,15.08843432,0.0001305,53.2155,263.3246,90.748,269.3662,2.152e-05,5.5e-07,0.0,0 STARLINK-4758,1 53820U 22114C   24006.89787228  .00000055  00000-0  21520-4 0  9995,2 53820  53.2155 263.3246 0001305  90.7480 269.3662 15.08843432 73141,6917.87,95.437,540.638,538.832,0.0
53820.0,STARLINK-4758,PAYLOAD,2024-01-07 02:19:05,15.08845895,0.0001405,53.2149,262.4321,83.8627,276.2525,0.0002259,3.31e-05,0.0,0 STARLINK-4758,1 53820U 22114C   24007.09659239  .00003310  00000-0  22590-3 0  9992,2 53820  53.2149 262.4321 0001405  83.8627 276.2525 15.08845895 72638,6917.862,95.437,540.699,538.755,0.0
53820.0,STARLINK-4758,PAYLOAD,2024-01-07 21:23:43,15.0883658,0.0001552,53.2148,258.8641,80.3776,279.7392,0.00018032,2.583e-05,0.0,0 STARLINK-4758,1 53820U 22114C   24007.89147990  .00002583  00000-0  18032-3 0  9993,2 53820  53.2148 258.8641 0001552  80.3776 279.7392 15.08836580 73295,6917.891,95.438,540.829,538.682,0.0
53820.0,STARLINK-4758,PAYLOAD,2024-01-08 22:49:53,15.0884384,0.0001502,53.2148,254.1048,95.5548,264.5615,0.00010491,1.382e-05,0.0,0 STARLINK-4758,1 53820U 22114C   24008.95131777  .00001382  00000-0  10491-3 0  9994,2 53820  53.2148 254.1048 0001502  95.5548 264.5615 15.08843840 73450,6917.869,95.437,540.773,538.695,0.0
53820.0,STARLINK-4758,PAYLOAD,2024-01-09 19:29:54,15.08842878,0.0001813,53.2154,250.2417,116.3868,243.731,0.00017063,2.429e-05,0.0,0 STARLINK-4758,1 53820U 22114C   24009.81243753  .00002429  00000-0  17063-3 0  9993,2 53820  53.2154 250.2417 0001813 116.3868 243.7310 15.08842878 73581,6917.872,95.437,540.991,538.482,0.0
53820.0,STARLINK-4758,PAYLOAD,2024-01-09 22:40:40,15.0884331,0.0001682,53.2153,249.6475,110.4873,249.6299,0.00015935,2.249e-05,0.0,0 STARLINK-4758,1 53820U 22114C   24009.94491742  .00002249  00000-0  15935-3 0  9996,2 53820  53.2153 249.6475 0001682 110.4873 249.6299 15.08843310 73607,6917.87,95.437,540.899,538.572,0.0
53820.0,STARLINK-4758,PAYLOAD,2024-01-10 19:20:42,15.08831663,0.0001516,53.2156,245.7819,100.9817,259.1346,0.00012752,1.742e-05,0.0,0 STARLINK-4758,1 53820U 22114C   24010.80604418  .00001742  00000-0  12752-3 0  9990,2 53820  53.2156 245.7819 0001516 100.9817 259.1346 15.08831663 73198,6917.906,95.438,540.82,538.722,0.0
53820.0,STARLINK-4758,PAYLOAD,2024-01-10 22:31:28,15.08836303,0.0001482,53.2164,245.1871,98.4755,261.6405,3.917e-05,3.35e-06,0.0,0 STARLINK-4758,1 53820U 22114C   24010.93852424  .00000335  00000-0  39170-4 0  9997,2 53820  53.2164 245.1871 0001482  98.4755 261.6405 15.08836303 73755,6917.892,95.438,540.782,538.731,0.0
53820.0,STARLINK-4758,PAYLOAD,2024-01-11 20:46:52,15.08837056,0.0001345,53.2163,241.0208,104.6934,255.4207,2.2487e-05,7e-07,0.0,0 STARLINK-4758,1 53820U 22114C   24011.86588584  .00000070  00000-0  22487-4 0  9992,2 53820  53.2163 241.0208 0001345 104.6934 255.4207 15.08837056 73892,6917.889,95.438,540.685,538.824,0.0
53820.0,STARLINK-4758,PAYLOAD,2024-01-11 23:57:38,15.0883967,0.0001618,53.2156,240.4254,106.5455,253.5714,-0.00010895,-2.022e-05,0.0,0 STARLINK-4758,1 53820U 22114C   24011.99836742 -.00002022  00000-0 -10895-3 0  9998,2 53820  53.2156 240.4254 0001618 106.5455 253.5714 15.08839670 73379,6917.881,95.438,540.866,538.627,0.0
53820.0,STARLINK-4758,PAYLOAD,2024-01-12 22:13:02,15.08838726,0.000131,53.2149,236.263,92.8633,267.2509,0.00011603,1.559e-05,0.0,0 STARLINK-4758,1 53820U 22114C   24012.92572783  .00001559  00000-0  11603-3 0  9994,2 53820  53.2149 236.2630 0001310  92.8633 267.2509 15.08838726 74057,6917.884,95.438,540.656,538.843,0.0
